SOYUZ-MS 28             
1 66664U 25275A   25352.21621920  .00008098  00000+0  15154-3 0  9992
2 66664  51.6313 115.3593 0003170 265.6107  94.4519 15.49648163  1284
1998-067XS              
1 66906U 98067XS  25351.69147340  .00024822  00000+0  42869-3 0  9996
2 66906  51.6309 117.8563 0003138 226.0893 133.9837 15.50834133  2389
1998-067XT              
1 66907U 98067XT  25351.81411976  .00054815  00000+0  89323-3 0  9991
2 66907  51.6304 117.1744 0003984 257.0045 103.0500 15.52074588  2401
1998-067XU              
1 66908U 98067XU  25351.62034166  .00054848  00000+0  89135-3 0  9990
2 66908  51.6303 118.1303 0004108 254.9738 105.0797 15.52149323  2373
SILVERSAT               
1 66909U 98067XV  25351.61959636  .00058931  00000+0  95195-3 0  9998
2 66909  51.6308 118.1251 0003993 257.3923 102.6620 15.52286885  2378
1998-067XW              
1 66910U 98067XW  25351.61784312  .00051432  00000+0  83128-3 0  9999
2 66910  51.6302 118.1137 0004529 233.5237 126.5336 15.52327753  2376
1998-067XX              
1 66911U 98067XX  25351.61613211  .00061259  00000+0  97424-3 0  9991
2 66911  51.6305 118.1027 0004219 237.6725 122.3857 15.52703134  2363
1998-067XY              
1 66912U 98067XY  25351.62311855  .00044013  00000+0  73169-3 0  9991
2 66912  51.6301 118.1487 0004152 250.0151 110.0391 15.51610656  2360
